$$SOE
2459580.500000000, A.D. 2022-Jan-01 00:00:00.0000, 6.686540787988314E+09, 4.043851689847345E+09, 8.338817885535336E+08,
2459587.500000000, A.D. 2022-Jan-08 00:00:00.0000, 6.685041504480078E+09, 4.045608534569351E+09, 8.343815315887947E+08,
2459594.500000000, A.D. 2022-Jan-15 00:00:00.0000, 6.683541471002632E+09, 4.047364989478655E+09, 8.348811925456202E+08,
2459601.500000000, A.D. 2022-Jan-22 00:00:00.0000, 6.682040691539388E+09, 4.049121052852956E+09, 8.353807709872944E+08,
2459608.500000000, A.D. 2022-Jan-29 00:00:00.0000, 6.680539170652864E+09, 4.050876725446303E+09, 8.358802665842233E+08,
2459615.500000000, A.D. 2022-Feb-05 00:00:00.0000, 6.679036911277622E+09, 4.052632009817424E+09, 8.363796792616985E+08,
2459622.500000000, A.D. 2022-Feb-12 00:00:00.0000, 6.677533914686498E+09, 4.054386908589808E+09, 8.368790090626178E+08,
2459629.500000000, A.D. 2022-Feb-19 00:00:00.0000, 6.676030181305398E+09, 4.056141424012549E+09, 8.373782560401595E+08,
2459636.500000000, A.D. 2022-Feb-26 00:00:00.0000, 6.674525711065269E+09, 4.057895558098935E+09, 8.378774202414234E+08,
2459643.500000000, A.D. 2022-Mar-05 00:00:00.0000, 6.673020503450500E+09, 4.059649312725930E+09, 8.383765017167797E+08,
2459650.500000000, A.D. 2022-Mar-12 00:00:00.0000, 6.671514557465617E+09, 4.061402689628906E+09, 8.388755005289018E+08,
2459657.500000000, A.D. 2022-Mar-19 00:00:00.0000, 6.670007871591288E+09, 4.063155690319803E+09, 8.393744167569704E+08,
2459664.500000000, A.D. 2022-Mar-26 00:00:00.0000, 6.668500443752066E+09, 4.064908315922982E+09, 8.398732504932086E+08,
2459671.500000000, A.D. 2022-Apr-02 00:00:00.0000, 6.666992271363669E+09, 4.066660566873132E+09, 8.403720018207107E+08,
2459678.500000000, A.D. 2022-Apr-09 00:00:00.0000, 6.665483351731838E+09, 4.068412442480299E+09, 8.408706707477748E+08,
2459685.500000000, A.D. 2022-Apr-16 00:00:00.0000, 6.663973683159916E+09, 4.070163941016349E+09, 8.413692571192441E+08,
2459692.500000000, A.D. 2022-Apr-23 00:00:00.0000, 6.662463265496288E+09, 4.071915061407281E+09, 8.418677607097335E+08,
2459699.500000000, A.D. 2022-Apr-30 00:00:00.0000, 6.660952098251495E+09, 4.073665804286330E+09, 8.423661814866896E+08,
2459706.500000000, A.D. 2022-May-07 00:00:00.0000, 6.659440179347795E+09, 4.075416170434379E+09, 8.428645196010277E+08,
2459713.500000000, A.D. 2022-May-14 00:00:00.0000, 6.657927505890511E+09, 4.077166159645978E+09, 8.433627752261360E+08,
2459720.500000000, A.D. 2022-May-21 00:00:00.0000, 6.656414074930127E+09, 4.078915770779763E+09, 8.438609484935560E+08,
2459727.500000000, A.D. 2022-May-28 00:00:00.0000, 6.654899883736303E+09, 4.080665002034575E+09, 8.443590394909148E+08,
2459734.500000000, A.D. 2022-Jun-04 00:00:00.0000, 6.653384929860956E+09, 4.082413851138549E+09, 8.448570482711446E+08,
2459741.500000000, A.D. 2022-Jun-11 00:00:00.0000, 6.651869211135087E+09, 4.084162315453519E+09, 8.453549748599534E+08,
2459748.500000000, A.D. 2022-Jun-18 00:00:00.0000, 6.650352725638109E+09, 4.085910392008203E+09, 8.458528192591364E+08,
2459755.500000000, A.D. 2022-Jun-25 00:00:00.0000, 6.648835471669125E+09, 4.087658077427240E+09, 8.463505814403930E+08,
2459762.500000000, A.D. 2022-Jul-02 00:00:00.0000, 6.647317447854246E+09, 4.089405367690593E+09, 8.468482613120914E+08,
2459769.500000000, A.D. 2022-Jul-09 00:00:00.0000, 6.645798653780263E+09, 4.091152257900500E+09, 8.473458586377735E+08,
2459776.500000000, A.D. 2022-Jul-16 00:00:00.0000, 6.644279091099506E+09, 4.092898743138971E+09, 8.478433730000927E+08,
2459783.500000000, A.D. 2022-Jul-23 00:00:00.0000, 6.642758762907524E+09, 4.094644820493625E+09, 8.483408040183825E+08,
2459790.500000000, A.D. 2022-Jul-30 00:00:00.0000, 6.641237671477657E+09, 4.096390488897989E+09, 8.488381515382614E+08,
2459797.500000000, A.D. 2022-Aug-06 00:00:00.0000, 6.639715817951272E+09, 4.098135747434409E+09, 8.493354155163741E+08,
2459804.500000000, A.D. 2022-Aug-13 00:00:00.0000, 6.638193203160486E+09, 4.099880594854022E+09, 8.498325959011123E+08,
2459811.500000000, A.D. 2022-Aug-20 00:00:00.0000, 6.636669828014015E+09, 4.101625029810396E+09, 8.503296926123781E+08,
2459818.500000000, A.D. 2022-Aug-27 00:00:00.0000, 6.635145693514277E+09, 4.103369051080259E+09, 8.508267055549879E+08,
2459825.500000000, A.D. 2022-Sep-03 00:00:00.0000, 6.633620800653708E+09, 4.105112657660796E+09, 8.513236346341264E+08,
2459832.500000000, A.D. 2022-Sep-10 00:00:00.0000, 6.632095150280359E+09, 4.106855848767404E+09, 8.518204797666686E+08,
2459839.500000000, A.D. 2022-Sep-17 00:00:00.0000, 6.630568742962213E+09, 4.108598623730186E+09, 8.523172408855839E+08,
2459846.500000000, A.D. 2022-Sep-24 00:00:00.0000, 6.629041578910624E+09, 4.110340981738307E+09, 8.528139179276941E+08,
2459853.500000000, A.D. 2022-Oct-01 00:00:00.0000, 6.627513658202890E+09, 4.112082921409894E+09, 8.533105107808280E+08,
2459860.500000000, A.D. 2022-Oct-08 00:00:00.0000, 6.625984981711256E+09, 4.113824440709583E+09, 8.538070191955171E+08,
2459867.500000000, A.D. 2022-Oct-15 00:00:00.0000, 6.624455551806476E+09, 4.115565538412875E+09, 8.543034428444419E+08,
2459874.500000000, A.D. 2022-Oct-22 00:00:00.0000, 6.622925370654410E+09, 4.117306215433426E+09, 8.547997815918765E+08,
2459881.500000000, A.D. 2022-Oct-29 00:00:00.0000, 6.621394438603422E+09, 4.119046473419764E+09, 8.552960355317826E+08,
2459888.500000000, A.D. 2022-Nov-05 00:00:00.0000, 6.619862754761898E+09, 4.120786313362601E+09, 8.557922048257332E+08,
2459895.500000000, A.D. 2022-Nov-12 00:00:00.0000, 6.618330317801096E+09, 4.122525735479954E+09, 8.562882896242065E+08,
2459902.500000000, A.D. 2022-Nov-19 00:00:00.0000, 6.616797126263902E+09, 4.124264739425950E+09, 8.567842900590656E+08,
2459909.500000000, A.D. 2022-Nov-26 00:00:00.0000, 6.615263178641753E+09, 4.126003324426008E+09, 8.572802062505589E+08,
2459916.500000000, A.D. 2022-Dec-03 00:00:00.0000, 6.613728473385736E+09, 4.127741489326857E+09, 8.577760383125670E+08,
2459923.500000000, A.D. 2022-Dec-10 00:00:00.0000, 6.612193008897393E+09, 4.129479232580068E+09, 8.582717863534040E+08,
2459930.500000000, A.D. 2022-Dec-17 00:00:00.0000, 6.610656783523954E+09, 4.131216552134141E+09, 8.587674504678426E+08,
2459937.500000000, A.D. 2022-Dec-24 00:00:00.0000, 6.609119795667385E+09, 4.132953445169279E+09, 8.592630307049794E+08,
2459944.500000000, A.D. 2022-Dec-31 00:00:00.0000, 6.607582044364883E+09, 4.134689907782380E+09, 8.597585269879565E+08,
2459951.500000000, A.D. 2023-Jan-07 00:00:00.0000, 6.606043530463551E+09, 4.136425935584629E+09, 8.602539390529935E+08,
2459958.500000000, A.D. 2023-Jan-14 00:00:00.0000, 6.604504256422180E+09, 4.138161525708511E+09, 8.607492666288106E+08,
2459965.500000000, A.D. 2023-Jan-21 00:00:00.0000, 6.602964224095496E+09, 4.139896677051593E+09, 8.612445096563916E+08,
2459972.500000000, A.D. 2023-Jan-28 00:00:00.0000, 6.601423434168734E+09, 4.141631388561596E+09, 8.617396681967392E+08,
2459979.500000000, A.D. 2023-Feb-04 00:00:00.0000, 6.599881887034104E+09, 4.143365658590492E+09, 8.622347422932613E+08,
2459986.500000000, A.D. 2023-Feb-11 00:00:00.0000, 6.598339583313901E+09, 4.145099485124101E+09, 8.627297319377263E+08,
2459993.500000000, A.D. 2023-Feb-18 00:00:00.0000, 6.596796523967037E+09, 4.146832866064144E+09, 8.632246370784497E+08,
2460000.500000000, A.D. 2023-Feb-25 00:00:00.0000, 6.595252710241950E+09, 4.148565799401123E+09, 8.637194576335084E+08,
2460007.500000000, A.D. 2023-Mar-04 00:00:00.0000, 6.593708143578227E+09, 4.150298283297094E+09, 8.642141935013101E+08,
2460014.500000000, A.D. 2023-Mar-11 00:00:00.0000, 6.592162825485741E+09, 4.152030316079044E+09, 8.647088445661263E+08,
2460021.500000000, A.D. 2023-Mar-18 00:00:00.0000, 6.590616757448564E+09, 4.153761896093656E+09, 8.652034106904185E+08,
2460028.500000000, A.D. 2023-Mar-25 00:00:00.0000, 6.589069941057193E+09, 4.155493021376504E+09, 8.656978916716909E+08,
2460035.500000000, A.D. 2023-Apr-01 00:00:00.0000, 6.587522378793736E+09, 4.157223689529275E+09, 8.661922871572845E+08,
2460042.500000000, A.D. 2023-Apr-08 00:00:00.0000, 6.585974074854900E+09, 4.158953899030239E+09, 8.666865966738720E+08,
2460049.500000000, A.D. 2023-Apr-15 00:00:00.0000, 6.584425033675817E+09, 4.160683650871928E+09, 8.671808198957934E+08,
2460056.500000000, A.D. 2023-Apr-22 00:00:00.0000, 6.582875257964041E+09, 4.162412947474214E+09, 8.676749567369928E+08,
2460063.500000000, A.D. 2023-Apr-29 00:00:00.0000, 6.581324748978788E+09, 4.164141791125715E+09, 8.681690071998155E+08,
2460070.500000000, A.D. 2023-May-06 00:00:00.0000, 6.579773507295258E+09, 4.165870183734811E+09, 8.686629712876940E+08,
2460077.500000000, A.D. 2023-May-13 00:00:00.0000, 6.578221533077281E+09, 4.167598126996783E+09, 8.691568489981406E+08,
2460084.500000000, A.D. 2023-May-20 00:00:00.0000, 6.576668826092489E+09, 4.169325622486118E+09, 8.696506403343003E+08,
2460091.500000000, A.D. 2023-May-27 00:00:00.0000, 6.575115385663469E+09, 4.171052671644601E+09, 8.701443453146536E+08,
2460098.500000000, A.D. 2023-Jun-03 00:00:00.0000, 6.573561210612552E+09, 4.172779275691257E+09, 8.706379639774594E+08,
2460105.500000000, A.D. 2023-Jun-10 00:00:00.0000, 6.572006299223984E+09, 4.174505435440463E+09, 8.711314963763382E+08,
2460112.500000000, A.D. 2023-Jun-17 00:00:00.0000, 6.570450649312528E+09, 4.176231150968147E+09, 8.716249425536463E+08,
2460119.500000000, A.D. 2023-Jun-24 00:00:00.0000, 6.568894258718516E+09, 4.177956421181785E+09, 8.721183024665825E+08,
2460126.500000000, A.D. 2023-Jul-01 00:00:00.0000, 6.567337126482431E+09, 4.179681244122329E+09, 8.726115759102640E+08,
2460133.500000000, A.D. 2023-Jul-08 00:00:00.0000, 6.565779253025102E+09, 4.181405618820173E+09, 8.731047626583226E+08,
2460140.500000000, A.D. 2023-Jul-15 00:00:00.0000, 6.564220638056701E+09, 4.183129545875441E+09, 8.735978627067623E+08,
2460147.500000000, A.D. 2023-Jul-22 00:00:00.0000, 6.562661279735969E+09, 4.184853025728211E+09, 8.740908762134407E+08,
2460154.500000000, A.D. 2023-Jul-29 00:00:00.0000, 6.561101175566586E+09, 4.186576057763720E+09, 8.745838033454909E+08,
$$EOE